CCSDS_OMM_VERS = 2.0
CREATION_DATE  = 
ORIGINATOR     = 

OBJECT_NAME    = SL-4 R/B
OBJECT_ID      = 2014-021B
CENTER_NAME    = EARTH
REF_FRAME      = TEME
TIME_SYSTEM    = UTC
MEAN_ELEMENT_THEORY = SGP/SGP4

EPOCH          = 2026-01-15T00:47:54.374208
MEAN_MOTION    = 15.37518718
ECCENTRICITY   = .0099372
INCLINATION    = 51.6059
RA_OF_ASC_NODE = 238.6915
ARG_OF_PERICENTER = 267.0301
MEAN_ANOMALY   = 91.9307

EPHEMERIS_TYPE = 0
CLASSIFICATION_TYPE = U
NORAD_CAT_ID   = 39679
ELEMENT_SET_NO = 999
REV_AT_EPOCH   = 64801
BSTAR          = .15151E-3
MEAN_MOTION_DOT = .6244E-4
MEAN_MOTION_DDOT = 0

CCSDS_OMM_VERS = 2.0
CREATION_DATE  = 
ORIGINATOR     = 

OBJECT_NAME    = ALOS-2
OBJECT_ID      = 2014-029A
CENTER_NAME    = EARTH
REF_FRAME      = TEME
TIME_SYSTEM    = UTC
MEAN_ELEMENT_THEORY = SGP/SGP4

EPOCH          = 2026-01-15T05:18:39.927744
MEAN_MOTION    = 14.79481376
ECCENTRICITY   = .0001443
INCLINATION    = 97.9203
RA_OF_ASC_NODE = 114.5877
ARG_OF_PERICENTER = 97.6442
MEAN_ANOMALY   = 262.4934

EPHEMERIS_TYPE = 0
CLASSIFICATION_TYPE = U
NORAD_CAT_ID   = 39766
ELEMENT_SET_NO = 999
REV_AT_EPOCH   = 62896
BSTAR          = .38416E-5
MEAN_MOTION_DOT = -.23E-6
MEAN_MOTION_DDOT = 0

CCSDS_OMM_VERS = 2.0
CREATION_DATE  = 
ORIGINATOR     = 

OBJECT_NAME    = YAOGAN-29
OBJECT_ID      = 2015-069A
CENTER_NAME    = EARTH
REF_FRAME      = TEME
TIME_SYSTEM    = UTC
MEAN_ELEMENT_THEORY = SGP/SGP4

EPOCH          = 2026-01-15T05:17:22.692192
MEAN_MOTION    = 14.82923331
ECCENTRICITY   = .0002276
INCLINATION    = 98.0201
RA_OF_ASC_NODE = 43.4963
ARG_OF_PERICENTER = 126.3705
MEAN_ANOMALY   = 233.7718

EPHEMERIS_TYPE = 0
CLASSIFICATION_TYPE = U
NORAD_CAT_ID   = 41038
ELEMENT_SET_NO = 999
REV_AT_EPOCH   = 54795
BSTAR          = .28627E-4
MEAN_MOTION_DOT = .178E-5
MEAN_MOTION_DDOT = 0

CCSDS_OMM_VERS = 2.0
CREATION_DATE  = 
ORIGINATOR     = 

OBJECT_NAME    = ASTRO-H (HITOMI)
OBJECT_ID      = 2016-012A
CENTER_NAME    = EARTH
REF_FRAME      = TEME
TIME_SYSTEM    = UTC
MEAN_ELEMENT_THEORY = SGP/SGP4

EPOCH          = 2026-01-15T03:35:47.926464
MEAN_MOTION    = 15.09593858
ECCENTRICITY   = .0009704
INCLINATION    = 31.0011
RA_OF_ASC_NODE = 341.9459
ARG_OF_PERICENTER = 156.0963
MEAN_ANOMALY   = 204.0127

EPHEMERIS_TYPE = 0
CLASSIFICATION_TYPE = U
NORAD_CAT_ID   = 41337
ELEMENT_SET_NO = 999
REV_AT_EPOCH   = 54413
BSTAR          = .10149E-3
MEAN_MOTION_DOT = .1767E-4
MEAN_MOTION_DDOT = 0

CCSDS_OMM_VERS = 2.0
CREATION_DATE  = 
ORIGINATOR     = 

OBJECT_NAME    = HXMT (HUIYAN)
OBJECT_ID      = 2017-034A
CENTER_NAME    = EARTH
REF_FRAME      = TEME
TIME_SYSTEM    = UTC
MEAN_ELEMENT_THEORY = SGP/SGP4

EPOCH          = 2026-01-15T04:26:14.676576
MEAN_MOTION    = 15.16708738
ECCENTRICITY   = .0033537
INCLINATION    = 43.0161
RA_OF_ASC_NODE = 313.9734
ARG_OF_PERICENTER = 256.8718
MEAN_ANOMALY   = 102.8387

EPHEMERIS_TYPE = 0
CLASSIFICATION_TYPE = U
NORAD_CAT_ID   = 42758
ELEMENT_SET_NO = 999
REV_AT_EPOCH   = 47441
BSTAR          = .18086E-3
MEAN_MOTION_DOT = .3418E-4
MEAN_MOTION_DDOT = 0

CCSDS_OMM_VERS = 2.0
CREATION_DATE  = 
ORIGINATOR     = 

OBJECT_NAME    = CZ-2C R/B
OBJECT_ID      = 2018-054D
CENTER_NAME    = EARTH
REF_FRAME      = TEME
TIME_SYSTEM    = UTC
MEAN_ELEMENT_THEORY = SGP/SGP4

EPOCH          = 2026-01-15T03:11:21.568128
MEAN_MOTION    = 15.83184105
ECCENTRICITY   = .0010558
INCLINATION    = 35.1340
RA_OF_ASC_NODE = 313.0534
ARG_OF_PERICENTER = 135.8053
MEAN_ANOMALY   = 224.3527

EPHEMERIS_TYPE = 0
CLASSIFICATION_TYPE = U
NORAD_CAT_ID   = 43521
ELEMENT_SET_NO = 999
REV_AT_EPOCH   = 42033
BSTAR          = .59664E-3
MEAN_MOTION_DOT = .1363E-2
MEAN_MOTION_DDOT = 0

CCSDS_OMM_VERS = 2.0
CREATION_DATE  = 
ORIGINATOR     = 

OBJECT_NAME    = SAOCOM 1A
OBJECT_ID      = 2018-076A
CENTER_NAME    = EARTH
REF_FRAME      = TEME
TIME_SYSTEM    = UTC
MEAN_ELEMENT_THEORY = SGP/SGP4

EPOCH          = 2026-01-15T03:46:15.605184
MEAN_MOTION    = 14.82149318
ECCENTRICITY   = .0001526
INCLINATION    = 97.8854
RA_OF_ASC_NODE = 204.0933
ARG_OF_PERICENTER = 84.2630
MEAN_ANOMALY   = 275.8757

EPHEMERIS_TYPE = 0
CLASSIFICATION_TYPE = U
NORAD_CAT_ID   = 43641
ELEMENT_SET_NO = 999
REV_AT_EPOCH   = 39343
BSTAR          = .49058E-4
MEAN_MOTION_DOT = .338E-5
MEAN_MOTION_DDOT = 0

CCSDS_OMM_VERS = 2.0
CREATION_DATE  = 
ORIGINATOR     = 

OBJECT_NAME    = H-2A R/B
OBJECT_ID      = 2018-084L
CENTER_NAME    = EARTH
REF_FRAME      = TEME
TIME_SYSTEM    = UTC
MEAN_ELEMENT_THEORY = SGP/SGP4

EPOCH          = 2026-01-15T03:09:47.266848
MEAN_MOTION    = 15.38802132
ECCENTRICITY   = .0025886
INCLINATION    = 98.8766
RA_OF_ASC_NODE = 221.1721
ARG_OF_PERICENTER = 208.4146
MEAN_ANOMALY   = 151.5685

EPHEMERIS_TYPE = 0
CLASSIFICATION_TYPE = U
NORAD_CAT_ID   = 43682
ELEMENT_SET_NO = 999
REV_AT_EPOCH   = 39753
BSTAR          = .29822E-3
MEAN_MOTION_DOT = .11465E-3
MEAN_MOTION_DDOT = 0

CCSDS_OMM_VERS = 2.0
CREATION_DATE  = 
ORIGINATOR     = 

OBJECT_NAME    = SAOCOM 1B
OBJECT_ID      = 2020-059A
CENTER_NAME    = EARTH
REF_FRAME      = TEME
TIME_SYSTEM    = UTC
MEAN_ELEMENT_THEORY = SGP/SGP4

EPOCH          = 2026-01-15T04:31:11.475264
MEAN_MOTION    = 14.82146999
ECCENTRICITY   = .00013
INCLINATION    = 97.8850
RA_OF_ASC_NODE = 203.2231
ARG_OF_PERICENTER = 85.2991
MEAN_ANOMALY   = 274.8371

EPHEMERIS_TYPE = 0
CLASSIFICATION_TYPE = U
NORAD_CAT_ID   = 46265
ELEMENT_SET_NO = 999
REV_AT_EPOCH   = 29082
BSTAR          = -.26119E-4
MEAN_MOTION_DOT = -.26E-5
MEAN_MOTION_DDOT = 0

CCSDS_OMM_VERS = 2.0
CREATION_DATE  = 
ORIGINATOR     = 

OBJECT_NAME    = CSS (TIANHE)
OBJECT_ID      = 2021-035A
CENTER_NAME    = EARTH
REF_FRAME      = TEME
TIME_SYSTEM    = UTC
MEAN_ELEMENT_THEORY = SGP/SGP4

EPOCH          = 2026-01-14T19:34:06.195936
MEAN_MOTION    = 15.60511354
ECCENTRICITY   = .0011406
INCLINATION    = 41.4652
RA_OF_ASC_NODE = 175.6947
ARG_OF_PERICENTER = 285.7845
MEAN_ANOMALY   = 74.1736

EPHEMERIS_TYPE = 0
CLASSIFICATION_TYPE = U
NORAD_CAT_ID   = 48274
ELEMENT_SET_NO = 999
REV_AT_EPOCH   = 26919
BSTAR          = .14132E-3
MEAN_MOTION_DOT = .11697E-3
MEAN_MOTION_DDOT = 0

CCSDS_OMM_VERS = 2.0
CREATION_DATE  = 
ORIGINATOR     = 

OBJECT_NAME    = COSMOS 2550
OBJECT_ID      = 2021-056A
CENTER_NAME    = EARTH
REF_FRAME      = TEME
TIME_SYSTEM    = UTC
MEAN_ELEMENT_THEORY = SGP/SGP4

EPOCH          = 2026-01-15T07:23:27.193632
MEAN_MOTION    = 15.33841084
ECCENTRICITY   = .0008274
INCLINATION    = 67.1407
RA_OF_ASC_NODE = 202.3990
ARG_OF_PERICENTER = 270.4917
MEAN_ANOMALY   = 89.5289

EPHEMERIS_TYPE = 0
CLASSIFICATION_TYPE = U
NORAD_CAT_ID   = 48865
ELEMENT_SET_NO = 999
REV_AT_EPOCH   = 25527
BSTAR          = .40847E-6
MEAN_MOTION_DOT = -.178E-5
MEAN_MOTION_DDOT = 0

CCSDS_OMM_VERS = 2.0
CREATION_DATE  = 
ORIGINATOR     = 

OBJECT_NAME    = CZ-2C R/B
OBJECT_ID      = 2022-058K
CENTER_NAME    = EARTH
REF_FRAME      = TEME
TIME_SYSTEM    = UTC
MEAN_ELEMENT_THEORY = SGP/SGP4

EPOCH          = 2026-01-15T00:27:51.928992
MEAN_MOTION    = 15.50474094
ECCENTRICITY   = .0042994
INCLINATION    = 50.1881
RA_OF_ASC_NODE = 233.5832
ARG_OF_PERICENTER = 334.9480
MEAN_ANOMALY   = 24.9403

EPHEMERIS_TYPE = 0
CLASSIFICATION_TYPE = U
NORAD_CAT_ID   = 52794
ELEMENT_SET_NO = 999
REV_AT_EPOCH   = 20179
BSTAR          = .23752E-3
MEAN_MOTION_DOT = .13874E-3
MEAN_MOTION_DDOT = 0

