SL-4 R/B                
1 39679U 14021B   26015.03326822  .00006244  00000+0  15151-3 0  9993
2 39679  51.6059 238.6915 0099372 267.0301  91.9307 15.37518718648019
ALOS-2                  
1 39766U 14029A   26015.22129546 -.00000023  00000+0  38416-5 0  9994
2 39766  97.9203 114.5877 0001443  97.6442 262.4934 14.79481376628961
YAOGAN-29               
1 41038U 15069A   26015.22040153  .00000178  00000+0  28627-4 0  9992
2 41038  98.0201  43.4963 0002276 126.3705 233.7718 14.82923331547955
ASTRO-H (HITOMI)        
1 41337U 16012A   26015.14986026  .00001767  00000+0  10149-3 0  9996
2 41337  31.0011 341.9459 0009704 156.0963 204.0127 15.09593858544137
HXMT (HUIYAN)           
1 42758U 17034A   26015.18489209  .00003418  00000+0  18086-3 0  9997
2 42758  43.0161 313.9734 0033537 256.8718 102.8387 15.16708738474416
CZ-2C R/B               
1 43521U 18054D   26015.13288852  .00136300  00000+0  59664-3 0  9999
2 43521  35.1340 313.0534 0010558 135.8053 224.3527 15.83184105420339
SAOCOM 1A               
1 43641U 18076A   26015.15712506  .00000338  00000+0  49058-4 0  9994
2 43641  97.8854 204.0933 0001526  84.2630 275.8757 14.82149318393433
H-2A R/B                
1 43682U 18084L   26015.13179707  .00011465  00000+0  29822-3 0  9995
2 43682  98.8766 221.1721 0025886 208.4146 151.5685 15.38802132397530
SAOCOM 1B               
1 46265U 20059A   26015.18832726 -.00000260  00000+0 -26119-4 0  9992
2 46265  97.8850 203.2231 0001300  85.2991 274.8371 14.82146999290829
CSS (TIANHE)            
1 48274U 21035A   26014.81534949  .00011697  00000+0  14132-3 0  9999
2 48274  41.4652 175.6947 0011406 285.7845  74.1736 15.60511354269195
COSMOS 2550             
1 48865U 21056A   26015.30795363 -.00000178  00000+0  40847-6 0  9990
2 48865  67.1407 202.3990 0008274 270.4917  89.5289 15.33841084255273
CZ-2C R/B               
1 52794U 22058K   26015.01935103  .00013874  00000+0  23752-3 0  9994
2 52794  50.1881 233.5832 0042994 334.9480  24.9403 15.50474094201797
